CCSDS_OMM_VERS = 2.0
CREATION_DATE  = 
ORIGINATOR     = 

OBJECT_NAME    = DELTA 2 R/B(1)
OBJECT_ID      = 1990-008B
CENTER_NAME    = EARTH
REF_FRAME      = TEME
TIME_SYSTEM    = UTC
MEAN_ELEMENT_THEORY = SGP/SGP4

EPOCH          = 2025-12-27T03:40:36.264000
MEAN_MOTION    = 15.46448073
ECCENTRICITY   = .01093193
INCLINATION    = 35.6070
RA_OF_ASC_NODE = 287.3768
ARG_OF_PERICENTER = 309.0505
MEAN_ANOMALY   = 50.0541

EPHEMERIS_TYPE = 0
CLASSIFICATION_TYPE = U
NORAD_CAT_ID   = 20453
ELEMENT_SET_NO = 999
REV_AT_EPOCH   = 91486
BSTAR          = .82579137E-3
MEAN_MOTION_DOT = .53674E-3
MEAN_MOTION_DDOT = 0

CCSDS_OMM_VERS = 2.0
CREATION_DATE  = 
ORIGINATOR     = 

OBJECT_NAME    = COSMOS 2058
OBJECT_ID      = 1990-010A
CENTER_NAME    = EARTH
REF_FRAME      = TEME
TIME_SYSTEM    = UTC
MEAN_ELEMENT_THEORY = SGP/SGP4

EPOCH          = 2025-12-26T19:14:13.786944
MEAN_MOTION    = 15.10609202
ECCENTRICITY   = .00096296
INCLINATION    = 82.4707
RA_OF_ASC_NODE = 119.2001
ARG_OF_PERICENTER = 219.9612
MEAN_ANOMALY   = 140.0910

EPHEMERIS_TYPE = 0
CLASSIFICATION_TYPE = U
NORAD_CAT_ID   = 20465
ELEMENT_SET_NO = 999
REV_AT_EPOCH   = 93123
BSTAR          = .31505459E-3
MEAN_MOTION_DOT = .5237E-4
MEAN_MOTION_DDOT = 0

CCSDS_OMM_VERS = 2.0
CREATION_DATE  = 
ORIGINATOR     = 

OBJECT_NAME    = SL-14 R/B
OBJECT_ID      = 1990-010B
CENTER_NAME    = EARTH
REF_FRAME      = TEME
TIME_SYSTEM    = UTC
MEAN_ELEMENT_THEORY = SGP/SGP4

EPOCH          = 2025-12-27T04:19:07.249728
MEAN_MOTION    = 14.83485144
ECCENTRICITY   = .00198895
INCLINATION    = 82.5024
RA_OF_ASC_NODE = 335.4842
ARG_OF_PERICENTER = 174.2387
MEAN_ANOMALY   = 185.9061

EPHEMERIS_TYPE = 0
CLASSIFICATION_TYPE = U
NORAD_CAT_ID   = 20466
ELEMENT_SET_NO = 999
REV_AT_EPOCH   = 91773
BSTAR          = .68654635E-4
MEAN_MOTION_DOT = .59E-5
MEAN_MOTION_DDOT = 0

CCSDS_OMM_VERS = 2.0
CREATION_DATE  = 
ORIGINATOR     = 

OBJECT_NAME    = SL-14 R/B
OBJECT_ID      = 1990-018B
CENTER_NAME    = EARTH
REF_FRAME      = TEME
TIME_SYSTEM    = UTC
MEAN_ELEMENT_THEORY = SGP/SGP4

EPOCH          = 2025-12-27T06:18:44.070912
MEAN_MOTION    = 14.82062027
ECCENTRICITY   = .00157522
INCLINATION    = 82.5220
RA_OF_ASC_NODE = 290.7911
ARG_OF_PERICENTER = 335.6016
MEAN_ANOMALY   = 24.4451

EPHEMERIS_TYPE = 0
CLASSIFICATION_TYPE = U
NORAD_CAT_ID   = 20511
ELEMENT_SET_NO = 999
REV_AT_EPOCH   = 91185
BSTAR          = .74150933E-4
MEAN_MOTION_DOT = .613E-5
MEAN_MOTION_DDOT = 0

CCSDS_OMM_VERS = 2.0
CREATION_DATE  = 
ORIGINATOR     = 

OBJECT_NAME    = HST
OBJECT_ID      = 1990-037B
CENTER_NAME    = EARTH
REF_FRAME      = TEME
TIME_SYSTEM    = UTC
MEAN_ELEMENT_THEORY = SGP/SGP4

EPOCH          = 2025-12-27T03:49:58.712448
MEAN_MOTION    = 15.28229286
ECCENTRICITY   = .00025229
INCLINATION    = 28.4655
RA_OF_ASC_NODE = 174.3242
ARG_OF_PERICENTER = 42.5437
MEAN_ANOMALY   = 317.5354

EPHEMERIS_TYPE = 0
CLASSIFICATION_TYPE = U
NORAD_CAT_ID   = 20580
ELEMENT_SET_NO = 999
REV_AT_EPOCH   = 76220
BSTAR          = .24604361E-3
MEAN_MOTION_DOT = .7191E-4
MEAN_MOTION_DDOT = 0

CCSDS_OMM_VERS = 2.0
CREATION_DATE  = 
ORIGINATOR     = 

OBJECT_NAME    = SL-16 R/B
OBJECT_ID      = 1990-046B
CENTER_NAME    = EARTH
REF_FRAME      = TEME
TIME_SYSTEM    = UTC
MEAN_ELEMENT_THEORY = SGP/SGP4

EPOCH          = 2025-12-27T05:42:31.810752
MEAN_MOTION    = 14.14997386
ECCENTRICITY   = .00123562
INCLINATION    = 70.9992
RA_OF_ASC_NODE = 90.0750
ARG_OF_PERICENTER = 48.4281
MEAN_ANOMALY   = 311.7899

EPHEMERIS_TYPE = 0
CLASSIFICATION_TYPE = U
NORAD_CAT_ID   = 20625
ELEMENT_SET_NO = 999
REV_AT_EPOCH   = 83814
BSTAR          = .1959898E-5
MEAN_MOTION_DOT = -.44E-6
MEAN_MOTION_DDOT = 0

CCSDS_OMM_VERS = 2.0
CREATION_DATE  = 
ORIGINATOR     = 

OBJECT_NAME    = COSMOS 2084
OBJECT_ID      = 1990-055A
CENTER_NAME    = EARTH
REF_FRAME      = TEME
TIME_SYSTEM    = UTC
MEAN_ELEMENT_THEORY = SGP/SGP4

EPOCH          = 2025-12-27T01:14:58.921440
MEAN_MOTION    = 15.05103000
ECCENTRICITY   = .00294103
INCLINATION    = 62.7887
RA_OF_ASC_NODE = 223.2232
ARG_OF_PERICENTER = 176.6113
MEAN_ANOMALY   = 183.5192

EPHEMERIS_TYPE = 0
CLASSIFICATION_TYPE = U
NORAD_CAT_ID   = 20663
ELEMENT_SET_NO = 999
REV_AT_EPOCH   = 92538
BSTAR          = .23231639E-3
MEAN_MOTION_DOT = .3148E-4
MEAN_MOTION_DDOT = 0

CCSDS_OMM_VERS = 2.0
CREATION_DATE  = 
ORIGINATOR     = 

OBJECT_NAME    = SL-6 R/B(2)
OBJECT_ID      = 1990-055D
CENTER_NAME    = EARTH
REF_FRAME      = TEME
TIME_SYSTEM    = UTC
MEAN_ELEMENT_THEORY = SGP/SGP4

EPOCH          = 2025-12-27T03:17:28.015584
MEAN_MOTION    = 15.03144078
ECCENTRICITY   = .00144315
INCLINATION    = 62.7828
RA_OF_ASC_NODE = 140.4930
ARG_OF_PERICENTER = 318.6332
MEAN_ANOMALY   = 41.3673

EPHEMERIS_TYPE = 0
CLASSIFICATION_TYPE = U
NORAD_CAT_ID   = 20666
ELEMENT_SET_NO = 999
REV_AT_EPOCH   = 92728
BSTAR          = .24575219E-3
MEAN_MOTION_DOT = .3145E-4
MEAN_MOTION_DDOT = 0

CCSDS_OMM_VERS = 2.0
CREATION_DATE  = 
ORIGINATOR     = 

OBJECT_NAME    = SL-8 R/B
OBJECT_ID      = 1990-078B
CENTER_NAME    = EARTH
REF_FRAME      = TEME
TIME_SYSTEM    = UTC
MEAN_ELEMENT_THEORY = SGP/SGP4

EPOCH          = 2025-12-27T06:34:09.828768
MEAN_MOTION    = 14.86447863
ECCENTRICITY   = .03698753
INCLINATION    = 82.9057
RA_OF_ASC_NODE = 316.2959
ARG_OF_PERICENTER = 256.9475
MEAN_ANOMALY   = 99.0219

EPHEMERIS_TYPE = 0
CLASSIFICATION_TYPE = U
NORAD_CAT_ID   = 20775
ELEMENT_SET_NO = 999
REV_AT_EPOCH   = 79853
BSTAR          = .48707742E-3
MEAN_MOTION_DOT = .15794E-3
MEAN_MOTION_DDOT = 0

CCSDS_OMM_VERS = 2.0
CREATION_DATE  = 
ORIGINATOR     = 

OBJECT_NAME    = SL-8 R/B
OBJECT_ID      = 1991-006B
CENTER_NAME    = EARTH
REF_FRAME      = TEME
TIME_SYSTEM    = UTC
MEAN_ELEMENT_THEORY = SGP/SGP4

EPOCH          = 2025-12-27T03:26:44.582784
MEAN_MOTION    = 13.77492816
ECCENTRICITY   = .00213381
INCLINATION    = 82.9412
RA_OF_ASC_NODE = 223.9989
ARG_OF_PERICENTER = 237.0301
MEAN_ANOMALY   = 237.0226

EPHEMERIS_TYPE = 0
CLASSIFICATION_TYPE = U
NORAD_CAT_ID   = 21088
ELEMENT_SET_NO = 999
REV_AT_EPOCH   = 75408
BSTAR          = .86461688E-4
MEAN_MOTION_DOT = .101E-5
MEAN_MOTION_DDOT = 0

CCSDS_OMM_VERS = 2.0
CREATION_DATE  = 
ORIGINATOR     = 

OBJECT_NAME    = OKEAN-3
OBJECT_ID      = 1991-039A
CENTER_NAME    = EARTH
REF_FRAME      = TEME
TIME_SYSTEM    = UTC
MEAN_ELEMENT_THEORY = SGP/SGP4

EPOCH          = 2025-12-27T04:25:32.287008
MEAN_MOTION    = 15.04207121
ECCENTRICITY   = .00136492
INCLINATION    = 82.5161
RA_OF_ASC_NODE = 47.0647
ARG_OF_PERICENTER = 210.7043
MEAN_ANOMALY   = 149.3386

EPHEMERIS_TYPE = 0
CLASSIFICATION_TYPE = U
NORAD_CAT_ID   = 21397
ELEMENT_SET_NO = 999
REV_AT_EPOCH   = 85413
BSTAR          = .22496688E-3
MEAN_MOTION_DOT = .3157E-4
MEAN_MOTION_DDOT = 0

CCSDS_OMM_VERS = 2.0
CREATION_DATE  = 
ORIGINATOR     = 

OBJECT_NAME    = COSMOS 2151
OBJECT_ID      = 1991-042A
CENTER_NAME    = EARTH
REF_FRAME      = TEME
TIME_SYSTEM    = UTC
MEAN_ELEMENT_THEORY = SGP/SGP4

EPOCH          = 2025-12-27T05:38:36.010464
MEAN_MOTION    = 14.99743054
ECCENTRICITY   = .00114699
INCLINATION    = 82.4967
RA_OF_ASC_NODE = 153.5337
ARG_OF_PERICENTER = 308.4049
MEAN_ANOMALY   = 51.6144

EPHEMERIS_TYPE = 0
CLASSIFICATION_TYPE = U
NORAD_CAT_ID   = 21422
ELEMENT_SET_NO = 999
REV_AT_EPOCH   = 85233
BSTAR          = .23152012E-3
MEAN_MOTION_DOT = .2888E-4
MEAN_MOTION_DDOT = 0

